[{"OBJECT_NAME":"STARLINK-35281","OBJECT_ID":"2025-221B","EPOCH":"2026-03-09T08:01:13.983168","MEAN_MOTION":15.3018104,"ECCENTRICITY":0.00011903,"INCLINATION":53.1588,"RA_OF_ASC_NODE":90.3744,"ARG_OF_PERICENTER":83.026,"MEAN_ANOMALY":277.0877,"EPHEMERIS_TYPE":0,"CLASSIFICATION_TYPE":"U","NORAD_CAT_ID":65824,"ELEMENT_SET_NO":999,"REV_AT_EPOCH":2602,"BSTAR":0.00013385737,"MEAN_MOTION_DOT":3.605e-5,"MEAN_MOTION_DDOT":0},{"OBJECT_NAME":"CZ-6A DEB","OBJECT_ID":"2022-151QB","EPOCH":"2026-03-08T18:03:47.471328","MEAN_MOTION":15.32168285,"ECCENTRICITY":0.00205863,"INCLINATION":98.6246,"RA_OF_ASC_NODE":151.4486,"ARG_OF_PERICENTER":181.9757,"MEAN_ANOMALY":178.1404,"EPHEMERIS_TYPE":0,"CLASSIFICATION_TYPE":"U","NORAD_CAT_ID":54890,"ELEMENT_SET_NO":999,"REV_AT_EPOCH":17659,"BSTAR":0.012866954,"MEAN_MOTION_DOT":0.00424465,"MEAN_MOTION_DDOT":0}]
